{
    "week": 295,
    "satellites": [
        {
            "Name": "COSMOS 2433 (720)",
            "Line1": "1 32275U 07052A   24339.55974193 -.00000026  00000+0  00000+0 0  9994",
            "Line2": "2 32275  65.8671 334.7031 0005703 255.6182 104.3380  2.13103995133176",
            "SatelliteNumber": "32275",
            "Classification": "U",
            "LaunchYear": "07",
            "LaunchNumber": "052",
            "PieceOfLaunch": "A",
            "EpochYear": "24",
            "EpochDay": 339.55974193,
            "FirstDerivativeMeanMotion": -2.6e-07,
            "SecondDerivativeMeanMotion": "00000+0",
            "BSTAR": "00000+0",
            "SetNumber": "999",
            "Inclination": 65.8671,
            "RAAN": 334.7031,
            "Eccentricity": 0.0005703,
            "ArgumentOfPerigee": 255.6182,
            "MeanAnomaly": 104.338,
            "MeanMotion": 2.13103995,
            "RevolutionNumber": "13317"
        },
        {
            "Name": "COSMOS 2432 (719)",
            "Line1": "1 32276U 07052B   24339.20829669 -.00000027  00000+0  00000+0 0  9995",
            "Line2": "2 32276  65.8826 334.8319 0011553 311.9994  84.0194  2.13103154133158",
            "SatelliteNumber": "32276",
            "Classification": "U",
            "LaunchYear": "07",
            "LaunchNumber": "052",
            "PieceOfLaunch": "B",
            "EpochYear": "24",
            "EpochDay": 339.20829669,
            "FirstDerivativeMeanMotion": -2.7e-07,
            "SecondDerivativeMeanMotion": "00000+0",
            "BSTAR": "00000+0",
            "SetNumber": "999",
            "Inclination": 65.8826,
            "RAAN": 334.8319,
            "Eccentricity": 0.0011553,
            "ArgumentOfPerigee": 311.9994,
            "MeanAnomaly": 84.0194,
            "MeanMotion": 2.13103154,
            "RevolutionNumber": "13315"
        },
        {
            "Name": "COSMOS 2434 (721)",
            "Line1": "1 32393U 07065A   24339.39136279  .00000072  00000+0  00000+0 0  9996",
            "Line2": "2 32393  64.3153 210.8138 0004288  71.2297  51.5366  2.13101302131843",
            "SatelliteNumber": "32393",
            "Classification": "U",
            "LaunchYear": "07",
            "LaunchNumber": "065",
            "PieceOfLaunch": "A",
            "EpochYear": "24",
            "EpochDay": 339.39136279,
            "FirstDerivativeMeanMotion": 7.2e-07,
            "SecondDerivativeMeanMotion": "00000+0",
            "BSTAR": "00000+0",
            "SetNumber": "999",
            "Inclination": 64.3153,
            "RAAN": 210.8138,
            "Eccentricity": 0.0004288,
            "ArgumentOfPerigee": 71.2297,
            "MeanAnomaly": 51.5366,
            "MeanMotion": 2.13101302,
            "RevolutionNumber": "13184"
        },
        {
            "Name": "COSMOS 2436 (723)",
            "Line1": "1 32395U 07065C   24338.39473472  .00000078  00000+0  00000+0 0  9992",
            "Line2": "2 32395  64.3239 210.9139 0017393   7.3567 205.5105  2.13100074131772",
            "SatelliteNumber": "32395",
            "Classification": "U",
            "LaunchYear": "07",
            "LaunchNumber": "065",
            "PieceOfLaunch": "C",
            "EpochYear": "24",
            "EpochDay": 338.39473472,
            "FirstDerivativeMeanMotion": 7.8e-07,
            "SecondDerivativeMeanMotion": "00000+0",
            "BSTAR": "00000+0",
            "SetNumber": "999",
            "Inclination": 64.3239,
            "RAAN": 210.9139,
            "Eccentricity": 0.0017393,
            "ArgumentOfPerigee": 7.3567,
            "MeanAnomaly": 205.5105,
            "MeanMotion": 2.13100074,
            "RevolutionNumber": "13177"
        },
        {
            "Name": "COSMOS 2456 (730)",
            "Line1": "1 36111U 09070A   24339.60238681  .00000023  00000+0  00000+0 0  9996",
            "Line2": "2 36111  64.6961  90.1119 0002494 297.7950 141.5018  2.13103553116545",
            "SatelliteNumber": "36111",
            "Classification": "U",
            "LaunchYear": "09",
            "LaunchNumber": "070",
            "PieceOfLaunch": "A",
            "EpochYear": "24",
            "EpochDay": 339.60238681,
            "FirstDerivativeMeanMotion": 2.3e-07,
            "SecondDerivativeMeanMotion": "00000+0",
            "BSTAR": "00000+0",
            "SetNumber": "999",
            "Inclination": 64.6961,
            "RAAN": 90.1119,
            "Eccentricity": 0.0002494,
            "ArgumentOfPerigee": 297.795,
            "MeanAnomaly": 141.5018,
            "MeanMotion": 2.13103553,
            "RevolutionNumber": "11654"
        },
        {
            "Name": "COSMOS 2457 (733)",
            "Line1": "1 36112U 09070B   24339.35008418  .00000021  00000+0  00000+0 0  9990",
            "Line2": "2 36112  64.6808  89.9755 0005490 157.5151 220.7904  2.13101000116508",
            "SatelliteNumber": "36112",
            "Classification": "U",
            "LaunchYear": "09",
            "LaunchNumber": "070",
            "PieceOfLaunch": "B",
            "EpochYear": "24",
            "EpochDay": 339.35008418,
            "FirstDerivativeMeanMotion": 2.1e-07,
            "SecondDerivativeMeanMotion": "00000+0",
            "BSTAR": "00000+0",
            "SetNumber": "999",
            "Inclination": 64.6808,
            "RAAN": 89.9755,
            "Eccentricity": 0.000549,
            "ArgumentOfPerigee": 157.5151,
            "MeanAnomaly": 220.7904,
            "MeanMotion": 2.13101,
            "RevolutionNumber": "11650"
        },
        {
            "Name": "COSMOS 2460 (732)",
            "Line1": "1 36402U 10007C   24339.56622049 -.00000025  00000+0  00000+0 0  9994",
            "Line2": "2 36402  65.7202 333.3386 0002968 273.6346 264.6022  2.13106173114804",
            "SatelliteNumber": "36402",
            "Classification": "U",
            "LaunchYear": "10",
            "LaunchNumber": "007",
            "PieceOfLaunch": "C",
            "EpochYear": "24",
            "EpochDay": 339.56622049,
            "FirstDerivativeMeanMotion": -2.5e-07,
            "SecondDerivativeMeanMotion": "00000+0",
            "BSTAR": "00000+0",
            "SetNumber": "999",
            "Inclination": 65.7202,
            "RAAN": 333.3386,
            "Eccentricity": 0.0002968,
            "ArgumentOfPerigee": 273.6346,
            "MeanAnomaly": 264.6022,
            "MeanMotion": 2.13106173,
            "RevolutionNumber": "11480"
        },
        {
            "Name": "COSMOS 2476 (744)",
            "Line1": "1 37867U 11064A   24339.62240547  .00000026  00000+0  00000+0 0  9990",
            "Line2": "2 37867  64.9661  91.8093 0023286 232.6903 133.4201  2.13101475101898",
            "SatelliteNumber": "37867",
            "Classification": "U",
            "LaunchYear": "11",
            "LaunchNumber": "064",
            "PieceOfLaunch": "A",
            "EpochYear": "24",
            "EpochDay": 339.62240547,
            "FirstDerivativeMeanMotion": 2.6e-07,
            "SecondDerivativeMeanMotion": "00000+0",
            "BSTAR": "00000+0",
            "SetNumber": "999",
            "Inclination": 64.9661,
            "RAAN": 91.8093,
            "Eccentricity": 0.0023286,
            "ArgumentOfPerigee": 232.6903,
            "MeanAnomaly": 133.4201,
            "MeanMotion": 2.13101475,
            "RevolutionNumber": "10189"
        },
        {
            "Name": "COSMOS 2477 (745)",
            "Line1": "1 37868U 11064B   24339.40738003  .00000025  00000+0  00000+0 0  9995",
            "Line2": "2 37868  64.9728  91.8908 0020421 233.1015 147.0237  2.13102884101835",
            "SatelliteNumber": "37868",
            "Classification": "U",
            "LaunchYear": "11",
            "LaunchNumber": "064",
            "PieceOfLaunch": "B",
            "EpochYear": "24",
            "EpochDay": 339.40738003,
            "FirstDerivativeMeanMotion": 2.5e-07,
            "SecondDerivativeMeanMotion": "00000+0",
            "BSTAR": "00000+0",
            "SetNumber": "999",
            "Inclination": 64.9728,
            "RAAN": 91.8908,
            "Eccentricity": 0.0020421,
            "ArgumentOfPerigee": 233.1015,
            "MeanAnomaly": 147.0237,
            "MeanMotion": 2.13102884,
            "RevolutionNumber": "10183"
        },
        {
            "Name": "COSMOS 2475 (743)",
            "Line1": "1 37869U 11064C   24339.40512576  .00000025  00000+0  00000+0 0  9991",
            "Line2": "2 37869  64.9797  91.9073 0024992 248.7013  87.3357  2.13101549101839",
            "SatelliteNumber": "37869",
            "Classification": "U",
            "LaunchYear": "11",
            "LaunchNumber": "064",
            "PieceOfLaunch": "C",
            "EpochYear": "24",
            "EpochDay": 339.40512576,
            "FirstDerivativeMeanMotion": 2.5e-07,
            "SecondDerivativeMeanMotion": "00000+0",
            "BSTAR": "00000+0",
            "SetNumber": "999",
            "Inclination": 64.9797,
            "RAAN": 91.9073,
            "Eccentricity": 0.0024992,
            "ArgumentOfPerigee": 248.7013,
            "MeanAnomaly": 87.3357,
            "MeanMotion": 2.13101549,
            "RevolutionNumber": "10183"
        }
    ]
}